Provider,Service Name,URL,City,Country,Status,Zone Name,Region,Parent Region,Latitude,Longitude
Microsoft,Front Door POPs,https://learn.microsoft.com/en-us/azure/frontdoor/edge-locations-by-region,Etobicoke,Canada,,,North America,,43.644,-79.566
Microsoft,Front Door POPs,https://learn.microsoft.com/en-us/azure/frontdoor/edge-locations-by-region,Etobicoke,Canada,,,North America,,43.644,-79.566
Microsoft,Front Door POPs,https://learn.microsoft.com/en-us/azure/frontdoor/edge-locations-by-region,Montreal,Canada,,,North America,,45.503,-73.57
Microsoft,Front Door POPs,https://learn.microsoft.com/en-us/azure/frontdoor/edge-locations-by-region,Vancouver,Canada,,,North America,,49.261,-123.114
Microsoft,Front Door POPs,https://learn.microsoft.com/en-us/azure/frontdoor/edge-locations-by-region,Vancouver,Canada,,,North America,,49.261,-123.114
Microsoft,Front Door POPs,https://learn.microsoft.com/en-us/azure/frontdoor/edge-locations-by-region,Querétaro,Mexico,,,North America,,20.593,-100.39
Microsoft,Front Door POPs,https://learn.microsoft.com/en-us/azure/frontdoor/edge-locations-by-region,Querétaro,Mexico,,,North America,,20.593,-100.39
Microsoft,Front Door POPs,https://learn.microsoft.com/en-us/azure/frontdoor/edge-locations-by-region,Atlanta,United States,,,North America,,33.749,-84.39
Microsoft,Front Door POPs,https://learn.microsoft.com/en-us/azure/frontdoor/edge-locations-by-region,Atlanta,United States,,,North America,,33.749,-84.39
Microsoft,Front Door POPs,https://learn.microsoft.com/en-us/azure/frontdoor/edge-locations-by-region,Atlanta,United States,,,North America,,33.749,-84.39
Microsoft,Front Door POPs,https://learn.microsoft.com/en-us/azure/frontdoor/edge-locations-by-region,Boydton,United States,,,North America,,36.667,-78.388
Microsoft,Front Door POPs,https://learn.microsoft.com/en-us/azure/frontdoor/edge-locations-by-region,Boydton,United States,,,North America,,36.667,-78.388
Microsoft,Front Door POPs,https://learn.microsoft.com/en-us/azure/frontdoor/edge-locations-by-region,Chaska,United States,,,North America,,44.789,-93.602
Microsoft,Front Door POPs,https://learn.microsoft.com/en-us/azure/frontdoor/edge-locations-by-region,Chaska,United States,,,North America,,44.789,-93.602
Microsoft,Front Door POPs,https://learn.microsoft.com/en-us/azure/frontdoor/edge-locations-by-region,Cheyenne,United States,,,North America,,41.14,-104.82
Microsoft,Front Door POPs,https://learn.microsoft.com/en-us/azure/frontdoor/edge-locations-by-region,Cheyenne,United States,,,North America,,41.14,-104.82
Microsoft,Front Door POPs,https://learn.microsoft.com/en-us/azure/frontdoor/edge-locations-by-region,Chicago,United States,,,North America,,41.876,-87.624
Microsoft,Front Door POPs,https://learn.microsoft.com/en-us/azure/frontdoor/edge-locations-by-region,Chicago,United States,,,North America,,41.876,-87.624
Microsoft,Front Door POPs,https://learn.microsoft.com/en-us/azure/frontdoor/edge-locations-by-region,Chicago,United States,,,North America,,41.876,-87.624
Microsoft,Front Door POPs,https://learn.microsoft.com/en-us/azure/frontdoor/edge-locations-by-region,Chicago,United States,,,North America,,41.876,-87.624
Microsoft,Front Door POPs,https://learn.microsoft.com/en-us/azure/frontdoor/edge-locations-by-region,Dallas,United States,,,North America,,32.776,-96.797
Microsoft,Front Door POPs,https://learn.microsoft.com/en-us/azure/frontdoor/edge-locations-by-region,Dallas,United States,,,North America,,32.776,-96.797
Microsoft,Front Door POPs,https://learn.microsoft.com/en-us/azure/frontdoor/edge-locations-by-region,Dallas,United States,,,North America,,32.776,-96.797
Microsoft,Front Door POPs,https://learn.microsoft.com/en-us/azure/frontdoor/edge-locations-by-region,Dallas,United States,,,North America,,32.776,-96.797
Microsoft,Front Door POPs,https://learn.microsoft.com/en-us/azure/frontdoor/edge-locations-by-region,Des Moines,United States,,,North America,,41.591,-93.605
Microsoft,Front Door POPs,https://learn.microsoft.com/en-us/azure/frontdoor/edge-locations-by-region,Des Moines,United States,,,North America,,41.591,-93.605
Microsoft,Front Door POPs,https://learn.microsoft.com/en-us/azure/frontdoor/edge-locations-by-region,Des Moines,United States,,,North America,,41.591,-93.605
Microsoft,Front Door POPs,https://learn.microsoft.com/en-us/azure/frontdoor/edge-locations-by-region,Detroit,United States,,,North America,,42.332,-83.047
Microsoft,Front Door POPs,https://learn.microsoft.com/en-us/azure/frontdoor/edge-locations-by-region,Englewood,United States,,,North America,,39.648,-104.988
Microsoft,Front Door POPs,https://learn.microsoft.com/en-us/azure/frontdoor/edge-locations-by-region,Englewood,United States,,,North America,,39.648,-104.988
Microsoft,Front Door POPs,https://learn.microsoft.com/en-us/azure/frontdoor/edge-locations-by-region,Honolulu,United States,,,North America,,21.305,-157.856
Microsoft,Front Door POPs,https://learn.microsoft.com/en-us/azure/frontdoor/edge-locations-by-region,Houston,United States,,,North America,,29.759,-95.368
Microsoft,Front Door POPs,https://learn.microsoft.com/en-us/azure/frontdoor/edge-locations-by-region,Houston,United States,,,North America,,29.759,-95.368
Microsoft,Front Door POPs,https://learn.microsoft.com/en-us/azure/frontdoor/edge-locations-by-region,Houston,United States,,,North America,,29.759,-95.368
Microsoft,Front Door POPs,https://learn.microsoft.com/en-us/azure/frontdoor/edge-locations-by-region,Jacksonville,United States,,,North America,,30.332,-81.656
Microsoft,Front Door POPs,https://learn.microsoft.com/en-us/azure/frontdoor/edge-locations-by-region,Jacksonville,United States,,,North America,,30.332,-81.656
Microsoft,Front Door POPs,https://learn.microsoft.com/en-us/azure/frontdoor/edge-locations-by-region,Las Vegas,United States,,,North America,,36.167,-115.149
Microsoft,Front Door POPs,https://learn.microsoft.com/en-us/azure/frontdoor/edge-locations-by-region,Las Vegas,United States,,,North America,,36.167,-115.149
Microsoft,Front Door POPs,https://learn.microsoft.com/en-us/azure/frontdoor/edge-locations-by-region,Las Vegas,United States,,,North America,,36.167,-115.149
Microsoft,Front Door POPs,https://learn.microsoft.com/en-us/azure/frontdoor/edge-locations-by-region,Los Angeles,United States,,,North America,,34.054,-118.243
Microsoft,Front Door POPs,https://learn.microsoft.com/en-us/azure/frontdoor/edge-locations-by-region,Los Angeles,United States,,,North America,,34.054,-118.243
Microsoft,Front Door POPs,https://learn.microsoft.com/en-us/azure/frontdoor/edge-locations-by-region,Manassas,United States,,,North America,,38.751,-77.475
Microsoft,Front Door POPs,https://learn.microsoft.com/en-us/azure/frontdoor/edge-locations-by-region,Manassas,United States,,,North America,,38.751,-77.475
Microsoft,Front Door POPs,https://learn.microsoft.com/en-us/azure/frontdoor/edge-locations-by-region,Manassas,United States,,,North America,,38.751,-77.475
Microsoft,Front Door POPs,https://learn.microsoft.com/en-us/azure/frontdoor/edge-locations-by-region,Memphis,United States,,,North America,,35.146,-90.052
Microsoft,Front Door POPs,https://learn.microsoft.com/en-us/azure/frontdoor/edge-locations-by-region,Miami,United States,,,North America,,25.774,-80.194
Microsoft,Front Door POPs,https://learn.microsoft.com/en-us/azure/frontdoor/edge-locations-by-region,Miami,United States,,,North America,,25.774,-80.194
Microsoft,Front Door POPs,https://learn.microsoft.com/en-us/azure/frontdoor/edge-locations-by-region,Miami,United States,,,North America,,25.774,-80.194
Microsoft,Front Door POPs,https://learn.microsoft.com/en-us/azure/frontdoor/edge-locations-by-region,Miami,United States,,,North America,,25.774,-80.194
Microsoft,Front Door POPs,https://learn.microsoft.com/en-us/azure/frontdoor/edge-locations-by-region,Minneapolis,United States,,,North America,,44.977,-93.265
Microsoft,Front Door POPs,https://learn.microsoft.com/en-us/azure/frontdoor/edge-locations-by-region,Minneapolis,United States,,,North America,,44.977,-93.265
Microsoft,Front Door POPs,https://learn.microsoft.com/en-us/azure/frontdoor/edge-locations-by-region,Needham Heights,United States,,,North America,,42.293,-71.235
Microsoft,Front Door POPs,https://learn.microsoft.com/en-us/azure/frontdoor/edge-locations-by-region,Needham Heights,United States,,,North America,,42.293,-71.235
Microsoft,Front Door POPs,https://learn.microsoft.com/en-us/azure/frontdoor/edge-locations-by-region,Nashville,United States,,,North America,,36.162,-86.774
Microsoft,Front Door POPs,https://learn.microsoft.com/en-us/azure/frontdoor/edge-locations-by-region,Newark,United States,,,North America,,40.736,-74.172
Microsoft,Front Door POPs,https://learn.microsoft.com/en-us/azure/frontdoor/edge-locations-by-region,New York,United States,,,North America,,40.713,-74.006
Microsoft,Front Door POPs,https://learn.microsoft.com/en-us/azure/frontdoor/edge-locations-by-region,New York,United States,,,North America,,40.713,-74.006
Microsoft,Front Door POPs,https://learn.microsoft.com/en-us/azure/frontdoor/edge-locations-by-region,Philadelphia,United States,,,North America,,39.953,-75.164
Microsoft,Front Door POPs,https://learn.microsoft.com/en-us/azure/frontdoor/edge-locations-by-region,Phoenix,United States,,,North America,,33.448,-112.074
Microsoft,Front Door POPs,https://learn.microsoft.com/en-us/azure/frontdoor/edge-locations-by-region,Plano,United States,,,North America,,33.014,-96.693
Microsoft,Front Door POPs,https://learn.microsoft.com/en-us/azure/frontdoor/edge-locations-by-region,Portland,United States,,,North America,,45.52,-122.674
Microsoft,Front Door POPs,https://learn.microsoft.com/en-us/azure/frontdoor/edge-locations-by-region,Quincy,United States,,,North America,,47.234,-119.854
Microsoft,Front Door POPs,https://learn.microsoft.com/en-us/azure/frontdoor/edge-locations-by-region,Quincy,United States,,,North America,,47.234,-119.854
Microsoft,Front Door POPs,https://learn.microsoft.com/en-us/azure/frontdoor/edge-locations-by-region,Quincy,United States,,,North America,,47.234,-119.854
Microsoft,Front Door POPs,https://learn.microsoft.com/en-us/azure/frontdoor/edge-locations-by-region,San Antonio,United States,,,North America,,29.425,-98.495
Microsoft,Front Door POPs,https://learn.microsoft.com/en-us/azure/frontdoor/edge-locations-by-region,San Antonio,United States,,,North America,,29.425,-98.495
Microsoft,Front Door POPs,https://learn.microsoft.com/en-us/azure/frontdoor/edge-locations-by-region,San Antonio,United States,,,North America,,29.425,-98.495
Microsoft,Front Door POPs,https://learn.microsoft.com/en-us/azure/frontdoor/edge-locations-by-region,San Antonio,United States,,,North America,,29.425,-98.495
Microsoft,Front Door POPs,https://learn.microsoft.com/en-us/azure/frontdoor/edge-locations-by-region,San Jose,United States,,,North America,,37.336,-121.891
Microsoft,Front Door POPs,https://learn.microsoft.com/en-us/azure/frontdoor/edge-locations-by-region,San Jose,United States,,,North America,,37.336,-121.891
Microsoft,Front Door POPs,https://learn.microsoft.com/en-us/azure/frontdoor/edge-locations-by-region,San Jose,United States,,,North America,,37.336,-121.891
Microsoft,Front Door POPs,https://learn.microsoft.com/en-us/azure/frontdoor/edge-locations-by-region,San Jose,United States,,,North America,,37.336,-121.891
Microsoft,Front Door POPs,https://learn.microsoft.com/en-us/azure/frontdoor/edge-locations-by-region,Salt Lake City,United States,,,North America,,40.76,-111.887
Microsoft,Front Door POPs,https://learn.microsoft.com/en-us/azure/frontdoor/edge-locations-by-region,Salt Lake City,United States,,,North America,,40.76,-111.887
Microsoft,Front Door POPs,https://learn.microsoft.com/en-us/azure/frontdoor/edge-locations-by-region,Salt Lake City,United States,,,North America,,40.76,-111.887
Microsoft,Front Door POPs,https://learn.microsoft.com/en-us/azure/frontdoor/edge-locations-by-region,Seattle,United States,,,North America,,47.604,-122.33
Microsoft,Front Door POPs,https://learn.microsoft.com/en-us/azure/frontdoor/edge-locations-by-region,Seattle,United States,,,North America,,47.604,-122.33
Microsoft,Front Door POPs,https://learn.microsoft.com/en-us/azure/frontdoor/edge-locations-by-region,Secaucus,United States,,,North America,,40.79,-74.057
Microsoft,Front Door POPs,https://learn.microsoft.com/en-us/azure/frontdoor/edge-locations-by-region,Secaucus,United States,,,North America,,40.79,-74.057
Microsoft,Front Door POPs,https://learn.microsoft.com/en-us/azure/frontdoor/edge-locations-by-region,Southfield,United States,,,North America,,42.473,-83.222
Microsoft,Front Door POPs,https://learn.microsoft.com/en-us/azure/frontdoor/edge-locations-by-region,Tempe,United States,,,North America,,33.426,-111.94
Microsoft,Front Door POPs,https://learn.microsoft.com/en-us/azure/frontdoor/edge-locations-by-region,Buenos Aires,Argentina,,,South America,,-34.608,-58.437
Microsoft,Front Door POPs,https://learn.microsoft.com/en-us/azure/frontdoor/edge-locations-by-region,Campinas,Brazil,,,South America,,-22.906,-47.06
Microsoft,Front Door POPs,https://learn.microsoft.com/en-us/azure/frontdoor/edge-locations-by-region,Campinas,Brazil,,,South America,,-22.906,-47.06
Microsoft,Front Door POPs,https://learn.microsoft.com/en-us/azure/frontdoor/edge-locations-by-region,Rio de Janeiro,Brazil,,,South America,,-22.911,-43.209
Microsoft,Front Door POPs,https://learn.microsoft.com/en-us/azure/frontdoor/edge-locations-by-region,Rio de Janeiro,Brazil,,,South America,,-22.911,-43.209
Microsoft,Front Door POPs,https://learn.microsoft.com/en-us/azure/frontdoor/edge-locations-by-region,Rio de Janeiro,Brazil,,,South America,,-22.911,-43.209
Microsoft,Front Door POPs,https://learn.microsoft.com/en-us/azure/frontdoor/edge-locations-by-region,Sao Paulo,Brazil,,,South America,,-23.551,-46.633
Microsoft,Front Door POPs,https://learn.microsoft.com/en-us/azure/frontdoor/edge-locations-by-region,Sao Paulo,Brazil,,,South America,,-23.551,-46.633
Microsoft,Front Door POPs,https://learn.microsoft.com/en-us/azure/frontdoor/edge-locations-by-region,Bogota,Colombia,,,South America,,4.653,-74.084
Microsoft,Front Door POPs,https://learn.microsoft.com/en-us/azure/frontdoor/edge-locations-by-region,Zaventem,Belgium,,,Europe,,50.881,4.473
Microsoft,Front Door POPs,https://learn.microsoft.com/en-us/azure/frontdoor/edge-locations-by-region,Zaventem,Belgium,,,Europe,,50.881,4.473
Microsoft,Front Door POPs,https://learn.microsoft.com/en-us/azure/frontdoor/edge-locations-by-region,Sofia,Bulgaria,,,Europe,,42.698,23.322
Microsoft,Front Door POPs,https://learn.microsoft.com/en-us/azure/frontdoor/edge-locations-by-region,Sofia,Bulgaria,,,Europe,,42.698,23.322
Microsoft,Front Door POPs,https://learn.microsoft.com/en-us/azure/frontdoor/edge-locations-by-region,Prague,Czech Republic,,,Europe,,50.06,14.446
Microsoft,Front Door POPs,https://learn.microsoft.com/en-us/azure/frontdoor/edge-locations-by-region,Ballerup,Denmark,,,Europe,,55.73,12.361
Microsoft,Front Door POPs,https://learn.microsoft.com/en-us/azure/frontdoor/edge-locations-by-region,Vantaa,Finland,,,Europe,,60.292,25.041
Microsoft,Front Door POPs,https://learn.microsoft.com/en-us/azure/frontdoor/edge-locations-by-region,Les Ulis,France,,,Europe,,48.682,2.17
Microsoft,Front Door POPs,https://learn.microsoft.com/en-us/azure/frontdoor/edge-locations-by-region,Les Ulis,France,,,Europe,,48.682,2.17
Microsoft,Front Door POPs,https://learn.microsoft.com/en-us/azure/frontdoor/edge-locations-by-region,Les Ulis,France,,,Europe,,48.682,2.17
Microsoft,Front Door POPs,https://learn.microsoft.com/en-us/azure/frontdoor/edge-locations-by-region,Paris,France,,,Europe,,48.853,2.348
Microsoft,Front Door POPs,https://learn.microsoft.com/en-us/azure/frontdoor/edge-locations-by-region,Saint Denis,France,,,Europe,,48.936,2.358
Microsoft,Front Door POPs,https://learn.microsoft.com/en-us/azure/frontdoor/edge-locations-by-region,Saint Denis,France,,,Europe,,48.936,2.358
Microsoft,Front Door POPs,https://learn.microsoft.com/en-us/azure/frontdoor/edge-locations-by-region,Berlin,Germany,,,Europe,,52.517,13.389
Microsoft,Front Door POPs,https://learn.microsoft.com/en-us/azure/frontdoor/edge-locations-by-region,Duesseldorf,Germany,,,Europe,,51.225,6.776
Microsoft,Front Door POPs,https://learn.microsoft.com/en-us/azure/frontdoor/edge-locations-by-region,Frankfurt,Germany,,,Europe,,50.111,8.682
Microsoft,Front Door POPs,https://learn.microsoft.com/en-us/azure/frontdoor/edge-locations-by-region,Frankfurt,Germany,,,Europe,,50.111,8.682
Microsoft,Front Door POPs,https://learn.microsoft.com/en-us/azure/frontdoor/edge-locations-by-region,Munich,Germany,,,Europe,,48.137,11.575
Microsoft,Front Door POPs,https://learn.microsoft.com/en-us/azure/frontdoor/edge-locations-by-region,Russelsheim,Germany,,,Europe,,49.992,8.414
Microsoft,Front Door POPs,https://learn.microsoft.com/en-us/azure/frontdoor/edge-locations-by-region,Russelsheim,Germany,,,Europe,,49.992,8.414
Microsoft,Front Door POPs,https://learn.microsoft.com/en-us/azure/frontdoor/edge-locations-by-region,Athens,Greece,,,Europe,,37.976,23.735
Microsoft,Front Door POPs,https://learn.microsoft.com/en-us/azure/frontdoor/edge-locations-by-region,Budapest,Hungary,,,Europe,,47.498,19.04
Microsoft,Front Door POPs,https://learn.microsoft.com/en-us/azure/frontdoor/edge-locations-by-region,Dublin,Ireland,,,Europe,,53.349,-6.261
Microsoft,Front Door POPs,https://learn.microsoft.com/en-us/azure/frontdoor/edge-locations-by-region,Dublin,Ireland,,,Europe,,53.349,-6.261
Microsoft,Front Door POPs,https://learn.microsoft.com/en-us/azure/frontdoor/edge-locations-by-region,Milan,Italy,,,Europe,,45.464,9.19
Microsoft,Front Door POPs,https://learn.microsoft.com/en-us/azure/frontdoor/edge-locations-by-region,Rome,Italy,,,Europe,,41.893,12.483
Microsoft,Front Door POPs,https://learn.microsoft.com/en-us/azure/frontdoor/edge-locations-by-region,Rome,Italy,,,Europe,,41.893,12.483
Microsoft,Front Door POPs,https://learn.microsoft.com/en-us/azure/frontdoor/edge-locations-by-region,Oslo,Norway,,,Europe,,59.913,10.739
Microsoft,Front Door POPs,https://learn.microsoft.com/en-us/azure/frontdoor/edge-locations-by-region,Stavanger,Norway,,,Europe,,58.97,5.732
Microsoft,Front Door POPs,https://learn.microsoft.com/en-us/azure/frontdoor/edge-locations-by-region,Warsaw,Poland,,,Europe,,52.232,21.007
Microsoft,Front Door POPs,https://learn.microsoft.com/en-us/azure/frontdoor/edge-locations-by-region,Lisbon,Portugal,,,Europe,,38.708,-9.137
Microsoft,Front Door POPs,https://learn.microsoft.com/en-us/azure/frontdoor/edge-locations-by-region,Bucharest,Romania,,,Europe,,44.436,26.103
Microsoft,Front Door POPs,https://learn.microsoft.com/en-us/azure/frontdoor/edge-locations-by-region,Barcelona,Spain,,,Europe,,41.383,2.177
Microsoft,Front Door POPs,https://learn.microsoft.com/en-us/azure/frontdoor/edge-locations-by-region,Madrid,Spain,,,Europe,,40.417,-3.704
Microsoft,Front Door POPs,https://learn.microsoft.com/en-us/azure/frontdoor/edge-locations-by-region,Bromma,Sweden,,,Europe,,59.34,17.94
Microsoft,Front Door POPs,https://learn.microsoft.com/en-us/azure/frontdoor/edge-locations-by-region,Bromma,Sweden,,,Europe,,59.34,17.94
Microsoft,Front Door POPs,https://learn.microsoft.com/en-us/azure/frontdoor/edge-locations-by-region,Zurich,Switzerland,,,Europe,,47.374,8.541
Microsoft,Front Door POPs,https://learn.microsoft.com/en-us/azure/frontdoor/edge-locations-by-region,Zurich,Switzerland,,,Europe,,47.374,8.541
Microsoft,Front Door POPs,https://learn.microsoft.com/en-us/azure/frontdoor/edge-locations-by-region,London,United Kingdom,,,Europe,,51.507,-0.128
Microsoft,Front Door POPs,https://learn.microsoft.com/en-us/azure/frontdoor/edge-locations-by-region,London,United Kingdom,,,Europe,,51.507,-0.128
Microsoft,Front Door POPs,https://learn.microsoft.com/en-us/azure/frontdoor/edge-locations-by-region,London,United Kingdom,,,Europe,,51.507,-0.128
Microsoft,Front Door POPs,https://learn.microsoft.com/en-us/azure/frontdoor/edge-locations-by-region,London,United Kingdom,,,Europe,,51.507,-0.128
Microsoft,Front Door POPs,https://learn.microsoft.com/en-us/azure/frontdoor/edge-locations-by-region,London,United Kingdom,,,Europe,,51.507,-0.128
Microsoft,Front Door POPs,https://learn.microsoft.com/en-us/azure/frontdoor/edge-locations-by-region,Manchester,United Kingdom,,,Europe,,53.479,-2.245
Microsoft,Front Door POPs,https://learn.microsoft.com/en-us/azure/frontdoor/edge-locations-by-region,Cairo,Egypt,,,Africa,,30.044,31.236
Microsoft,Front Door POPs,https://learn.microsoft.com/en-us/azure/frontdoor/edge-locations-by-region,Cairo,Egypt,,,Africa,,30.044,31.236
Microsoft,Front Door POPs,https://learn.microsoft.com/en-us/azure/frontdoor/edge-locations-by-region,Nairobi,Kenya,,,Africa,,-1.303,36.829
Microsoft,Front Door POPs,https://learn.microsoft.com/en-us/azure/frontdoor/edge-locations-by-region,Rabat,Morocco,,,Africa,,34.022,-6.834
Microsoft,Front Door POPs,https://learn.microsoft.com/en-us/azure/frontdoor/edge-locations-by-region,Lagos,Nigeria,,,Africa,,6.455,3.394
Microsoft,Front Door POPs,https://learn.microsoft.com/en-us/azure/frontdoor/edge-locations-by-region,Cape Town,South Africa,,,Africa,,-33.929,18.417
Microsoft,Front Door POPs,https://learn.microsoft.com/en-us/azure/frontdoor/edge-locations-by-region,Isando,South Africa,,,Africa,,-26.136,28.222
Microsoft,Front Door POPs,https://learn.microsoft.com/en-us/azure/frontdoor/edge-locations-by-region,Isando,South Africa,,,Africa,,-26.136,28.222
Microsoft,Front Door POPs,https://learn.microsoft.com/en-us/azure/frontdoor/edge-locations-by-region,Isando,South Africa,,,Africa,,-26.136,28.222
Microsoft,Front Door POPs,https://learn.microsoft.com/en-us/azure/frontdoor/edge-locations-by-region,Tel Aviv,Israel,,,Middle East,,32.085,34.782
Microsoft,Front Door POPs,https://learn.microsoft.com/en-us/azure/frontdoor/edge-locations-by-region,Doha,Qatar,,,Middle East,,25.286,51.526
Microsoft,Front Door POPs,https://learn.microsoft.com/en-us/azure/frontdoor/edge-locations-by-region,Doha,Qatar,,,Middle East,,25.286,51.526
Microsoft,Front Door POPs,https://learn.microsoft.com/en-us/azure/frontdoor/edge-locations-by-region,Istanbul,Turkey,,,Middle East,,41.077,29.052
Microsoft,Front Door POPs,https://learn.microsoft.com/en-us/azure/frontdoor/edge-locations-by-region,Dubai,United Arab Emirates,,,Middle East,,25.265,55.292
Microsoft,Front Door POPs,https://learn.microsoft.com/en-us/azure/frontdoor/edge-locations-by-region,Chennai,India,,,India,,13.084,80.27
Microsoft,Front Door POPs,https://learn.microsoft.com/en-us/azure/frontdoor/edge-locations-by-region,Chennai,India,,,India,,13.084,80.27
Microsoft,Front Door POPs,https://learn.microsoft.com/en-us/azure/frontdoor/edge-locations-by-region,Chennai,India,,,India,,13.084,80.27
Microsoft,Front Door POPs,https://learn.microsoft.com/en-us/azure/frontdoor/edge-locations-by-region,Chennai,India,,,India,,13.084,80.27
Microsoft,Front Door POPs,https://learn.microsoft.com/en-us/azure/frontdoor/edge-locations-by-region,Hyderabad,India,,,India,,17.361,78.474
Microsoft,Front Door POPs,https://learn.microsoft.com/en-us/azure/frontdoor/edge-locations-by-region,Mumbai,India,,,India,,18.973,72.828
Microsoft,Front Door POPs,https://learn.microsoft.com/en-us/azure/frontdoor/edge-locations-by-region,Mumbai,India,,,India,,18.973,72.828
Microsoft,Front Door POPs,https://learn.microsoft.com/en-us/azure/frontdoor/edge-locations-by-region,New Delhi,India,,,India,,28.614,77.209
Microsoft,Front Door POPs,https://learn.microsoft.com/en-us/azure/frontdoor/edge-locations-by-region,Chai Wan,Hong Kong SAR,,,Asia,,22.266,114.238
Microsoft,Front Door POPs,https://learn.microsoft.com/en-us/azure/frontdoor/edge-locations-by-region,Jakarta,Indonesia,,,Asia,,-6.175,106.827
Microsoft,Front Door POPs,https://learn.microsoft.com/en-us/azure/frontdoor/edge-locations-by-region,Inzai,Japan,,,Asia,,35.832,140.145
Microsoft,Front Door POPs,https://learn.microsoft.com/en-us/azure/frontdoor/edge-locations-by-region,Osaka,Japan,,,Asia,,34.62,135.49
Microsoft,Front Door POPs,https://learn.microsoft.com/en-us/azure/frontdoor/edge-locations-by-region,Osaka,Japan,,,Asia,,34.62,135.49
Microsoft,Front Door POPs,https://learn.microsoft.com/en-us/azure/frontdoor/edge-locations-by-region,Osaka-shi,Japan,,,Asia,,34.694,135.501
Microsoft,Front Door POPs,https://learn.microsoft.com/en-us/azure/frontdoor/edge-locations-by-region,Osaka-shi,Japan,,,Asia,,34.694,135.501
Microsoft,Front Door POPs,https://learn.microsoft.com/en-us/azure/frontdoor/edge-locations-by-region,Tokyo,Japan,,,Asia,,35.684,139.774
Microsoft,Front Door POPs,https://learn.microsoft.com/en-us/azure/frontdoor/edge-locations-by-region,Tokyo,Japan,,,Asia,,35.684,139.774
Microsoft,Front Door POPs,https://learn.microsoft.com/en-us/azure/frontdoor/edge-locations-by-region,Tokyo,Japan,,,Asia,,35.684,139.774
Microsoft,Front Door POPs,https://learn.microsoft.com/en-us/azure/frontdoor/edge-locations-by-region,Seoul,South Korea,,,Asia,,37.567,126.978
Microsoft,Front Door POPs,https://learn.microsoft.com/en-us/azure/frontdoor/edge-locations-by-region,Kuala Lumpur,Malaysia,,,Asia,,3.152,101.694
Microsoft,Front Door POPs,https://learn.microsoft.com/en-us/azure/frontdoor/edge-locations-by-region,Manila,Philippines,,,Asia,,14.591,120.98
Microsoft,Front Door POPs,https://learn.microsoft.com/en-us/azure/frontdoor/edge-locations-by-region,Taipei,Taiwan,,,Asia,,25.038,121.564
Microsoft,Front Door POPs,https://learn.microsoft.com/en-us/azure/frontdoor/edge-locations-by-region,Taipei City,Taiwan,,,Asia,,25.135,121.469
Microsoft,Front Door POPs,https://learn.microsoft.com/en-us/azure/frontdoor/edge-locations-by-region,Bangkok,Thailand,,,Asia,,13.825,100.622
Microsoft,Front Door POPs,https://learn.microsoft.com/en-us/azure/frontdoor/edge-locations-by-region,Ho Chi Minh City,Vietnam,,,Asia,,10.776,106.701
Microsoft,Front Door POPs,https://learn.microsoft.com/en-us/azure/frontdoor/edge-locations-by-region,Brisbane,Australia,,,Australia and New Zealand,,-27.469,153.023
Microsoft,Front Door POPs,https://learn.microsoft.com/en-us/azure/frontdoor/edge-locations-by-region,Derrimut,Australia,,,Australia and New Zealand,,-37.799,144.776
Microsoft,Front Door POPs,https://learn.microsoft.com/en-us/azure/frontdoor/edge-locations-by-region,Macquarie Park,Australia,,,Australia and New Zealand,,-33.781,151.126
Microsoft,Front Door POPs,https://learn.microsoft.com/en-us/azure/frontdoor/edge-locations-by-region,Melbourne,Australia,,,Australia and New Zealand,,-37.814,144.963
Microsoft,Front Door POPs,https://learn.microsoft.com/en-us/azure/frontdoor/edge-locations-by-region,Perth,Australia,,,Australia and New Zealand,,-31.956,115.861
Microsoft,Front Door POPs,https://learn.microsoft.com/en-us/azure/frontdoor/edge-locations-by-region,Perth,Australia,,,Australia and New Zealand,,-31.956,115.861
Microsoft,Front Door POPs,https://learn.microsoft.com/en-us/azure/frontdoor/edge-locations-by-region,Perth,Australia,,,Australia and New Zealand,,-31.956,115.861
Microsoft,Front Door POPs,https://learn.microsoft.com/en-us/azure/frontdoor/edge-locations-by-region,Sydney,Australia,,,Australia and New Zealand,,-33.769,150.957
Microsoft,Front Door POPs,https://learn.microsoft.com/en-us/azure/frontdoor/edge-locations-by-region,Auckland,New Zealand,,,Australia and New Zealand,,-36.852,174.763
